STARLINK-1421_new
1 15709C 20035BE  21326.14721666  .00000033  00000-0  22076-5 0  3264
2 15709  53.0521 238.0752 0001958  70.9155  20.1942 15.06407415    12
STARLINK-1421_old
1 25709C 20035BE  21325.16168961  .00008098  00000-0  54256-3 0  3259
2 25709  53.0528 242.4992 0001932  68.7076  74.8876 15.06391173    18
